GALAXY 18 (G-18)        
1 32951U 08024A   18045.93915913  .00000018  00000-0  00000-0 0  9991
2 32951   0.0106 102.0920 0003010 241.7811  16.0913  1.00273190 15381
CHINASAT 9 (ZX 9)       
1 33051U 08028A   18046.30995126 -.00000255  00000-0  00000-0 0  9997
2 33051   0.0756  29.0257 0003935 342.6127 337.3792  1.00271234 35486
SKYNET 5C               
1 33055U 08030A   18047.20711470 -.00000147  00000-0  00000+0 0  9991
2 33055   0.0635 353.6106 0003143 335.5261 233.7140  1.00272427 35386
TURKSAT 3A              
1 33056U 08030B   18046.89200050  .00000139  00000-0  00000-0 0  9994
2 33056   0.0240  82.8749 0003663 268.7290 157.3398  1.00275179 21848
INTELSAT 25 (IS-25)     
1 33153U 08034A   18046.68289837 -.00000231  00000-0  00000-0 0  9997
2 33153   0.0099 132.8517 0002908 150.5530  76.5380  1.00272898 35217
BADR-6                  
1 33154U 08034B   18046.60115597  .00000137  00000-0  00000-0 0  9995
2 33154   0.0534  36.4883 0004564 331.1798  20.3026  1.00276228 35237
ECHOSTAR 11             
1 33207U 08035A   18046.90039634 -.00000064  00000-0  00000+0 0  9994
2 33207   0.0606 282.8611 0002516  53.5314  23.5710  1.00272159 35140
SUPERBIRD-C2            
1 33274U 08038A   18047.07268375 -.00000258  00000-0  00000+0 0  9991
2 33274   0.0412 277.1025 0002213 110.6731 288.3258  1.00274820 34860
AMC-21                  
1 33275U 08038B   18046.50948684  .00000029  00000-0  00000-0 0  9993
2 33275   0.0669 289.6344 0002437  49.7737 224.5436  1.00273054 34973
INMARSAT 4-F3           
1 33278U 08039A   18046.44493784 -.00000144  00000-0  00000-0 0  9995
2 33278   3.0256   3.9122 0003068 326.7807 236.8679  1.00271858 34749
NIMIQ 4                 
1 33373U 08044A   18046.41715845 -.00000228  00000-0  00000+0 0  9991
2 33373   0.0168 126.5022 0002203 210.7148 236.3290  1.00270294 34315
GALAXY 19 (G-19)        
1 33376U 08045A   18046.86438767 -.00000146  00000-0  00000+0 0  9998
2 33376   0.0192 122.7138 0002869 208.0587  29.2114  1.00269768 34325
VENESAT-1               
1 33414U 08055A   18047.33452078 -.00000244  00000-0  00000+0 0  9995
2 33414   0.0135  98.1324 0002072 235.7556 214.7788  1.00270597 34046
ASTRA 1M                
1 33436U 08057A   18047.13783307  .00000113  00000-0  00000+0 0  9995
2 33436   0.0390 270.6886 0000344 351.9100 312.2784  1.00275953 33960
CIEL-2                  
1 33453U 08063A   18047.41882650  .00000051  00000-0  00000+0 0  9994
2 33453   0.0624 282.1931 0002912  52.4371 193.6414  1.00273501 33636
EUTELSAT HOT BIRD 13C   
1 33459U 08065A   18046.55956834  .00000079  00000-0  00000-0 0  9993
2 33459   0.0483 343.8943 0002830  13.4990   2.5799  1.00269755 33737
EUTELSAT 48D            
1 33460U 08065B   18046.84837663  .00000117  00000-0  00000-0 0  9998
2 33460   0.1052 302.3373 0001671  25.4380 171.5565  1.00268739 33501
FENGYUN 2E              
1 33463U 08066A   18047.09477532 -.00000207  00000-0  00000+0 0  9995
2 33463   2.6464  68.5346 0004407 238.2454 319.7879  1.00278269 33575
EXPRESS-AM44            
1 33595U 09007A   18046.48865530 -.00000096  00000-0  00000-0 0  9995
2 33595   0.0205 240.8443 0000764 158.9421 270.5371  1.00271881 33038
NSS-9                   
1 33749U 09008A   18046.55063187  .00000064  00000-0  00000-0 0  9997
2 33749   0.0221 293.6822 0001937  53.4369 179.6892  1.00271756 33046
EUTELSAT 33E            
1 33750U 09008B   18046.85853542  .00000148  00000-0  00000-0 0  9997
2 33750   0.0304  53.9819 0003897 237.1845 196.7654  1.00273373 32941
TELSTAR 11N             
1 34111U 09009A   18047.39869845 -.00000258  00000-0  00000+0 0  9995
2 34111   0.0151 108.5897 0002084 194.7574 308.9395  1.00270965 32909
EUTELSAT 10A            
1 34710U 09016A   18047.35606059  .00000061  00000-0  00000+0 0  9991
2 34710   0.0670  21.1551 0005441 310.0548 313.2177  1.00272259 32456
SES-7 (PROTOSTAR 2)     
1 34941U 09027A   18047.08729821 -.00000352  00000-0  00000+0 0  9996
2 34941   0.0109  71.8496 0002457 206.0210   7.8033  1.00270817 32100
MEASAT-3A               
1 35362U 09032A   18045.34494247 -.00000249  00000-0  00000-0 0  9994
2 35362   0.0663 251.9247 0001446  38.2198  69.8133  1.00270733 31717
GOES 14                 
1 35491U 09033A   18045.88722090 -.00000100  00000-0  00000-0 0  9993
2 35491   0.0130 169.9565 0008521  75.4111 114.5181  1.00272165 31632
SIRIUS FM-5             
1 35493U 09034A   18046.73795931 -.00000207  00000-0  00000-0 0  9993
2 35493   0.0142 102.5791 0000953 287.2658 295.3593  1.00270131 31457
TERRESTAR-1             
1 35496U 09035A   18046.87674687 -.00000059  00000-0  00000+0 0  9990
2 35496   2.7176 350.0263 0003201 348.3931  11.9910  1.00272159 31640
ASIASAT 5               
1 35696U 09042A   18046.60757793 -.00000314  00000-0  00000+0 0  9995
2 35696   0.0146 160.3463 0001405 165.4073 138.9837  1.00269741 31150
JCSAT-RA (JCSAT-12)     
1 35755U 09044A   18047.23857563 -.00000352  00000-0  00000+0 0  9991
2 35755   0.0476  52.3934 0000662 315.8513 351.7322  1.00270903 31155
OPTUS D3                
1 35756U 09044B   18046.61361477 -.00000155  00000-0  00000-0 0  9999
2 35756   0.0612 310.5224 0004038  31.4983 180.4213  1.00271323 31054
PALAPA D                
1 35812U 09046A   18047.28005759 -.00000365  00000-0  00000+0 0  9998
2 35812   0.0159 100.2992 0001977 274.9208 344.7617  1.00272858 31161
NIMIQ 5                 
1 35873U 09050A   18046.78521535 -.00000264  00000-0  00000+0 0  9997
2 35873   0.0625 280.0314 0002624  58.2352  17.4239  1.00271860 30844
AMAZONAS 2              
1 35942U 09054A   18047.46591760 -.00000289  00000-0  00000+0 0  9998
2 35942   0.0244 142.2904 0000524 247.5292 223.3012  1.00271648 30666
COMSATBW-1              
1 35943U 09054B   18046.85196042  .00000018  00000-0  00000+0 0  9994
2 35943   0.0613  83.1649 0002443 258.4797 173.8059  1.00271613 30740
NSS-12                  
1 36032U 09058A   18046.43783360  .00000064  00000-0  00000+0 0  9998
2 36032   0.0404 304.3489 0002432  30.9012  24.7129  1.00271977 30418
THOR 6                  
1 36033U 09058B   18046.81827706 -.00000017  00000-0  00000-0 0  9994
2 36033   0.0444 268.1276 0001706  77.0986  94.2599  1.00273341 30509
INTELSAT 14 (IS-14)     
1 36097U 09064A   18046.72034763 -.00000281  00000-0  00000+0 0  9996
2 36097   0.0171 125.1008 0002058 201.4039  33.4823  1.00271124 30191
EUTELSAT 36B            
1 36101U 09065A   18046.81504358  .00000148  00000-0  00000-0 0  9997
2 36101   0.0673  20.8235 0004530 315.4726 138.7524  1.00272434 30218
INTELSAT 15 (IS-15)     
1 36106U 09067A   18046.88521514 -.00000193  00000-0  00000-0 0  9995
2 36106   0.0413 292.4513 0002062  38.7825 218.3985  1.00273425 10792
DIRECTV 12              
1 36131U 09075A   18047.42893209 -.00000110  00000-0  00000+0 0  9994
2 36131   0.0507 269.4086 0000077 355.6407 292.9120  1.00271795 29870
BEIDOU 3                
1 36287U 10001A   18046.85793163 -.00000290  00000-0  00000+0 0  9990
2 36287   1.5007  15.6869 0002123 203.2248  15.7088  1.00269892 29653
RADUGA-1M 2             
1 36358U 10002A   18047.19147622 -.00000190  00000-0  00000+0 0  9990
2 36358   0.0424 258.7619 0002976 125.0699 276.1939  1.00271484 29499
SDO                     
1 36395U 10005A   18046.25115389 -.00000083  00000-0  00000-0 0  9997
2 36395  29.0513 136.0929 0000734 142.1799 214.9300  1.00268412 29537
INTELSAT 16 (IS-16)     
1 36397U 10006A   18046.78521535 -.00000251  00000-0  00000-0 0  9999
2 36397   0.0193 123.0862 0002338 228.9583   0.1485  1.00266331 29346
GOES 15                 
1 36411U 10008A   18045.97353924  .00000083  00000-0  00000-0 0  9995
2 36411   0.0410 229.3603 0000597  30.7576  99.8495  1.00270107 29166
ECHOSTAR 14             
1 36499U 10010A   18047.34897010 -.00000007  00000-0  00000+0 0  9992
2 36499   0.0217 134.7498 0002895 183.2667 195.0020  1.00270134 29024
SES-1                   
1 36516U 10016A   18047.41296003 -.00000121  00000-0  00000+0 0  9998
2 36516   0.0566 291.1660 0001905  35.2316 227.5953  1.00272337 28626
ASTRA 3B                
1 36581U 10021A   18046.81990366  .00000130  00000-0  00000-0 0  9992
2 36581   0.0315  31.6108 0003214 295.0494 137.7321  1.00275145 28364
COMSATBW-2              
1 36582U 10021B   18047.20067078  .00000081  00000-0  00000+0 0  9996
2 36582   0.0554 273.9847 0001881  68.6775 248.9246  1.00268183 28472
BEIDOU 4                
1 36590U 10024A   18046.48905140 -.00000362  00000-0  00000-0 0  9992
2 36590   1.5524  36.4989 0007417 314.7599  80.8101  1.00272579 28267
BADR-5                  
1 36592U 10025A   18047.19063622  .00000138  00000-0  00000+0 0  9993
2 36592   0.0217 199.3403 0001435  56.1044 345.3195  1.00277759 28388
COMS 1                  
1 36744U 10032A   18047.42087567 -.00000352  00000-0  00000+0 0  9999
2 36744   0.0193 117.2610 0000827 197.8638 110.9237  1.00265405 28147
ARABSAT-5A              
1 36745U 10032B   18046.93112015  .00000146  00000-0  00000-0 0  9993
2 36745   0.0526  14.0734 0003080 304.2582 193.1920  1.00270937 28132
ECHOSTAR 15             
1 36792U 10034A   18047.12268181 -.00000289  00000-0  00000+0 0  9993
2 36792   0.0362 293.5515 0001896  49.4961 145.5290  1.00271700 27886
NILESAT 201             
1 36830U 10037A   18046.48865531 -.00000065  00000-0  00000-0 0  9992
2 36830   0.0476 188.7249 0004131 160.0491 325.5362  1.00272263 27769
RASCOM-QAF 1R           
1 36831U 10037B   18046.58759234  .00000011  00000-0  00000-0 0  9996
2 36831   0.0229  99.5466 0006024 220.9036  39.4807  1.00271725 27789
CHINASAT 6A (ZX 6A)     
1 37150U 10042A   18046.91977324 -.00000361  00000-0  00000-0 0  9995
2 37150   0.0640 267.2000 0002091 224.0404 110.7947  1.00269474 27385
QZS-1 (MICHIBIKI)       
1 37158U 10045A   18044.63035418 -.00000206  00000-0  00000+0 0  9999
2 37158  41.0065 155.8285 0757701 270.3189  82.4407  1.00260321 27170
